{"type": "FeatureCollection", "features": [{"type": "Feature", "properties": {"NAME_2": "Barranquilla"}, "geometry": {"type": "Polygon", "coordinates": [[[-74.85, 11.0], [-74.77, 11.0], [-74.77, 11.08], [-74.85, 11.08], [-74.85, 11.0]]]}}, {"type": "Feature", "properties": {"NAME_2": "Soledad"}, "geometry": {"type": "Polygon", "coordinates": [[[-74.75, 11.0], [-74.67, 11.0], [-74.67, 11.08], [-74.75, 11.08], [-74.75, 11.0]]]}}, {"type": "Feature", "properties": {"NAME_2": "Malambo"}, "geometry": {"type": "Polygon", "coordinates": [[[-74.64999999999999, 11.0], [-74.57, 11.0], [-74.57, 11.08], [-74.64999999999999, 11.08], [-74.64999999999999, 11.0]]]}}, {"type": "Feature", "properties": {"NAME_2": "Galapa"}, "geometry": {"type": "Polygon", "coordinates": [[[-74.55, 11.0], [-74.47, 11.0], [-74.47, 11.08], [-74.55, 11.08], [-74.55, 11.0]]]}}, {"type": "Feature", "properties": {"NAME_2": "Puerto Colombia"}, "geometry": {"type": "Polygon", "coordinates": [[[-74.44999999999999, 11.0], [-74.36999999999999, 11.0], [-74.36999999999999, 11.08], [-74.44999999999999, 11.08], [-74.44999999999999, 11.0]]]}}, {"type": "Feature", "properties": {"NAME_2": "Sabanalarga"}, "geometry": {"type": "Polygon", "coordinates": [[[-74.85, 11.1], [-74.77, 11.1], [-74.77, 11.18], [-74.85, 11.18], [-74.85, 11.1]]]}}, {"type": "Feature", "properties": {"NAME_2": "Baranoa"}, "geometry": {"type": "Polygon", "coordinates": [[[-74.75, 11.1], [-74.67, 11.1], [-74.67, 11.18], [-74.75, 11.18], [-74.75, 11.1]]]}}, {"type": "Feature", "properties": {"NAME_2": "Polonuevo"}, "geometry": {"type": "Polygon", "coordinates": [[[-74.64999999999999, 11.1], [-74.57, 11.1], [-74.57, 11.18], [-74.64999999999999, 11.18], [-74.64999999999999, 11.1]]]}}, {"type": "Feature", "properties": {"NAME_2": "Santo Tomás"}, "geometry": {"type": "Polygon", "coordinates": [[[-74.55, 11.1], [-74.47, 11.1], [-74.47, 11.18], [-74.55, 11.18], [-74.55, 11.1]]]}}, {"type": "Feature", "properties": {"NAME_2": "Palmar de Varela"}, "geometry": {"type": "Polygon", "coordinates": [[[-74.44999999999999, 11.1], [-74.36999999999999, 11.1], [-74.36999999999999, 11.18], [-74.44999999999999, 11.18], [-74.44999999999999, 11.1]]]}}]}